GSAT0101 (GALILEO-PFM)  
1 37846U 11060A   24234.83413295 -.00000090  00000+0  00000+0 0  9994
2 37846  57.1284 359.7607 0001559  73.0209 286.9990  1.70475659 79794
GSAT0102 (GALILEO-FM2)  
1 37847U 11060B   24233.57410653 -.00000086  00000+0  00000+0 0  9995
2 37847  57.1296 359.7949 0001369 345.2619   7.0165  1.70475153 79778
GSAT0103 (GALILEO-FM3)  
1 38857U 12055A   24231.35408243  .00000001  00000+0  00000+0 0  9994
2 38857  55.4310 119.8967 0003200 279.1572  80.8786  1.70473583 73623
GSAT0201 (GALILEO 5)    
1 40128U 14050A   24235.38337132 -.00000052  00000+0  00000+0 0  9997
2 40128  49.5906 300.4014 1612973 153.8537 215.3034  1.85519342 66001
GSAT0202 (GALILEO 6)    
1 40129U 14050B   24234.02446000 -.00000039  00000+0  00000+0 0  9998
2 40129  49.6086 299.5338 1611947 154.5980 214.3219  1.85519996 68145
GSAT0203 (GALILEO 7)    
1 40544U 15017A   24233.44008124 -.00000086  00000+0  00000+0 0  9991
2 40544  56.9236 359.7237 0003187 234.1814 125.7904  1.70476060 57852
GSAT0204 (GALILEO 8)    
1 40545U 15017B   24233.69443991 -.00000086  00000+0  00000+0 0  9994
2 40545  56.9299 359.7325 0003486 217.0190 142.9586  1.70475584 20902
GSAT0205 (GALILEO 9)    
1 40889U 15045A   24234.04912048  .00000058  00000+0  00000+0 0  9998
2 40889  55.1918 239.9765 0003077   6.7819 353.2389  1.70473373 55670
GSAT0206 (GALILEO 10)   
1 40890U 15045B   24234.85635400  .00000054  00000+0  00000+0 0  9999
2 40890  55.1912 239.9496 0001820 325.5728  34.4267  1.70473344 55718
GSAT0209 (GALILEO 12)   
1 41174U 15079A   24232.67999796  .00000006  00000+0  00000+0 0  9998
2 41174  55.4505 119.5701 0003745 333.7468  26.3154  1.70473864 53414
GSAT0208 (GALILEO 11)   
1 41175U 15079B   24234.65955234  .00000007  00000+0  00000+0 0  9999
2 41175  55.4498 119.5134 0003209 333.3767  26.6943  1.70473741 53861
GSAT0211 (GALILEO 14)   
1 41549U 16030A   24235.36863369  .00000053  00000+0  00000+0 0  9999
2 41549  55.3388 239.9538 0003359 309.3534  50.6257  1.70473407 51355
GSAT0207 (GALILEO 15)   
1 41859U 16069A   24234.14675903  .00000007  00000+0  00000+0 0  9994
2 41859  55.1162 119.5153 0003710 314.8256  45.2308  1.70473754 48062
GSAT0212 (GALILEO 16)   
1 41860U 16069B   24235.17416995  .00000004  00000+0  00000+0 0  9991
2 41860  55.1144 119.4829 0002838   3.4803 356.6087  1.70473909 48337
GSAT0213 (GALILEO 17)   
1 41861U 16069C   24233.19633416  .00000007  00000+0  00000+0 0  9994
2 41861  55.1157 119.5450 0002676 293.6991  66.3562  1.70474203 48166
GSAT0214 (GALILEO 18)   
1 41862U 16069D   24234.51474389  .00000006  00000+0  00000+0 0  9993
2 41862  55.1150 119.5016 0002199 303.4204  56.6456  1.70473926 48317
GSAT0215 (GALILEO 19)   
1 43055U 17079A   24233.83083169  .00000059  00000+0  00000+0 0  9995
2 43055  55.3163 239.8171 0003553 263.1860  96.7915  1.70474119 41641
GSAT0216 (GALILEO 20)   
1 43056U 17079B   24235.29563418  .00000053  00000+0  00000+0 0  9992
2 43056  55.3179 239.7766 0004937 272.9023  87.0500  1.70474220 41684
GSAT0217 (GALILEO 21)   
1 43057U 17079C   24233.16981742  .00000064  00000+0  00000+0 0  9993
2 43057  55.3150 239.8338 0004203 283.3863  76.5902  1.70474223 41631
GSAT0218 (GALILEO 22)   
1 43058U 17079D   24234.56302638  .00000055  00000+0  00000+0 0  9990
2 43058  55.3149 239.7930 0005427 269.5810  90.3695  1.70474165 41687
GSAT0221 (GALILEO 25)   
1 43564U 18060A   24233.87755471 -.00000086  00000+0  00000+0 0  9998
2 43564  57.3037 359.7286 0002914 260.3484  99.6203  1.70475943 37821
GSAT0222 (GALILEO 26)   
1 43565U 18060B   24235.26934346 -.00000091  00000+0  00000+0 0  9990
2 43565  57.3075 359.6930 0003438 219.7256 140.2527  1.70475698 37892
GSAT0219 (GALILEO 23)   
1 43566U 18060C   24235.49112077 -.00000091  00000+0  00000+0 0  9995
2 43566  57.3063 359.6889 0002002 265.1243  94.8566  1.70475960 37877
GSAT0220 (GALILEO 24)   
1 43567U 18060D   24231.60568601 -.00000081  00000+0  00000+0 0  9992
2 43567  57.3068 359.7942 0002226 259.7591 100.2165  1.70475626 37794
GSAT0223 (GALILEO 27)   
1 49809U 21116A   24235.56646499 -.00000092  00000+0  00000+0 0  9996
2 49809  57.2968 359.5811 0003232 186.4645 174.7992  1.70475738 16878
GSAT0224 (GALILEO 28)   
1 49810U 21116B   24235.37464514 -.00000091  00000+0  00000+0 0  9992
2 49810  57.2976 359.5846 0002721 179.4128 176.6398  1.70475764 16888
GSAT0225 (GALILEO 29)   
1 59598U 24079A   24234.51156861  .00000006  00000+0  00000+0 0  9990
2 59598  54.7323 119.6820 0001452 200.9923 336.1232  1.70473996  1979
GSAT0227 (GALILEO 30)   
1 59600U 24079C   24234.99299259  .00000004  00000+0  00000+0 0  9993
2 59600  54.7277 119.6690 0002133 101.1045 259.0060  1.70474065  2049
